{
  "type": "FeatureCollection",
  "features": [
    {
      "type": "Feature",
      "properties": {
        "norad_id": 37533,
        "name": "COSMOS 2251 DEB",
        "group": "cosmos-2251-debris",
        "lat": -20.84544497982552,
        "lon": -0.7559129757867327,
        "alt_km": 753.4353569634768,
        "timestamp": "2025-12-23T09:49:07.480743+00:00",
        "meta_object_name": "COSMOS 2251 DEB",
        "meta_object_id": "1993-036BNN",
        "meta_epoch": "2025-12-17T06:38:38.162976",
        "meta_mean_motion": 14.12190824,
        "meta_eccentricity": 0.0157786,
        "meta_inclination": 74.0692,
        "meta_ra_of_asc_node": 183.8069,
        "meta_arg_of_pericenter": 239.4795,
        "meta_mean_anomaly": 119.0691,
        "meta_ephemeris_type": 0,
        "meta_classification_type": "U",
        "meta_norad_cat_id": 37533,
        "meta_element_set_no": 999,
        "meta_rev_at_epoch": 62985,
        "meta_bstar": 0.0010470743,
        "meta_mean_motion_dot": 2.138e-05,
        "meta_mean_motion_ddot": 0,
        "tle_line1": "1 37533U 93036BNN 25351.27683059  .00002138  00000+0  10471-2 0  9996",
        "tle_line2": "2 37533  74.0692 183.8069 0157786 239.4795 119.0691 14.12190824629858"
      },
      "geometry": {
        "type": "Point",
        "coordinates": [
          -0.7559129757867327,
          -20.84544497982552
        ]
      }
    },
    {
      "type": "Feature",
      "properties": {
        "norad_id": 37535,
        "name": "COSMOS 2251 DEB",
        "group": "cosmos-2251-debris",
        "lat": 70.84867498468437,
        "lon": 177.59237425005512,
        "alt_km": 690.6377967265717,
        "timestamp": "2025-12-23T09:49:07.480753+00:00",
        "meta_object_name": "COSMOS 2251 DEB",
        "meta_object_id": "1993-036BNQ",
        "meta_epoch": "2025-12-22T22:38:26.722176",
        "meta_mean_motion": 14.58519559,
        "meta_eccentricity": 0.00272112,
        "meta_inclination": 74.0235,
        "meta_ra_of_asc_node": 54.0622,
        "meta_arg_of_pericenter": 191.5022,
        "meta_mean_anomaly": 344.9796,
        "meta_ephemeris_type": 0,
        "meta_classification_type": "U",
        "meta_norad_cat_id": 37535,
        "meta_element_set_no": 999,
        "meta_rev_at_epoch": 85473,
        "meta_bstar": 0.00069364253,
        "meta_mean_motion_dot": 3.211e-05,
        "meta_mean_motion_ddot": 0,
        "tle_line1": "1 37535U 93036BNQ 25356.94336484  .00003211  00000+0  69364-3 0  9993",
        "tle_line2": "2 37535  74.0235  54.0622 0027211 191.5022 344.9796 14.58519559854739"
      },
      "geometry": {
        "type": "Point",
        "coordinates": [
          177.59237425005512,
          70.84867498468437
        ]
      }
    },
    {
      "type": "Feature",
      "properties": {
        "norad_id": 37537,
        "name": "COSMOS 2251 DEB",
        "group": "cosmos-2251-debris",
        "lat": -25.283030242655588,
        "lon": 73.24682440301194,
        "alt_km": 808.1647799759112,
        "timestamp": "2025-12-23T09:49:07.480763+00:00",
        "meta_object_name": "COSMOS 2251 DEB",
        "meta_object_id": "1993-036BNS",
        "meta_epoch": "2025-12-21T23:27:31.159008",
        "meta_mean_motion": 14.37503433,
        "meta_eccentricity": 0.00506975,
        "meta_inclination": 74.0118,
        "meta_ra_of_asc_node": 248.1014,
        "meta_arg_of_pericenter": 25.8838,
        "meta_mean_anomaly": 334.4834,
        "meta_ephemeris_type": 0,
        "meta_classification_type": "U",
        "meta_norad_cat_id": 37537,
        "meta_element_set_no": 999,
        "meta_rev_at_epoch": 85166,
        "meta_bstar": 0.00018759264,
        "meta_mean_motion_dot": 5.44e-06,
        "meta_mean_motion_ddot": 0,
        "tle_line1": "1 37537U 93036BNS 25355.97744397  .00000544  00000+0  18759-3 0  9991",
        "tle_line2": "2 37537  74.0118 248.1014 0050697  25.8838 334.4834 14.37503433851667"
      },
      "geometry": {
        "type": "Point",
        "coordinates": [
          73.24682440301194,
          -25.283030242655588
        ]
      }
    },
    {
      "type": "Feature",
      "properties": {
        "norad_id": 37546,
        "name": "COSMOS 2251 DEB",
        "group": "cosmos-2251-debris",
        "lat": 34.97909188981839,
        "lon": -114.61558500323152,
        "alt_km": 622.75271399125,
        "timestamp": "2025-12-23T09:49:07.480773+00:00",
        "meta_object_name": "COSMOS 2251 DEB",
        "meta_object_id": "1993-036BPB",
        "meta_epoch": "2025-12-22T05:36:41.418144",
        "meta_mean_motion": 14.80847243,
        "meta_eccentricity": 0.00051432,
        "meta_inclination": 74.0225,
        "meta_ra_of_asc_node": 79.2675,
        "meta_arg_of_pericenter": 73.5105,
        "meta_mean_anomaly": 286.6636,
        "meta_ephemeris_type": 0,
        "meta_classification_type": "U",
        "meta_norad_cat_id": 37546,
        "meta_element_set_no": 999,
        "meta_rev_at_epoch": 66028,
        "meta_bstar": 0.0026855013,
        "meta_mean_motion_dot": 0.00020767,
        "meta_mean_motion_ddot": 0,
        "tle_line1": "1 37546U 93036BPB 25356.23381271  .00020767  00000+0  26855-2 0  9993",
        "tle_line2": "2 37546  74.0225  79.2675 0005143  73.5105 286.6636 14.80847243660287"
      },
      "geometry": {
        "type": "Point",
        "coordinates": [
          -114.61558500323152,
          34.97909188981839
        ]
      }
    },
    {
      "type": "Feature",
      "properties": {
        "norad_id": 37959,
        "name": "COSMOS 2251 DEB",
        "group": "cosmos-2251-debris",
        "lat": -12.108044832867026,
        "lon": -139.86079213041057,
        "alt_km": 663.954696572272,
        "timestamp": "2025-12-23T09:49:07.480784+00:00",
        "meta_object_name": "COSMOS 2251 DEB",
        "meta_object_id": "1993-036BPJ",
        "meta_epoch": "2025-12-21T21:31:34.881600",
        "meta_mean_motion": 14.58196001,
        "meta_eccentricity": 0.00572652,
        "meta_inclination": 74.0108,
        "meta_ra_of_asc_node": 39.4932,
        "meta_arg_of_pericenter": 180.3481,
        "meta_mean_anomaly": 356.9847,
        "meta_ephemeris_type": 0,
        "meta_classification_type": "U",
        "meta_norad_cat_id": 37959,
        "meta_element_set_no": 999,
        "meta_rev_at_epoch": 80260,
        "meta_bstar": 0.00054900426,
        "meta_mean_motion_dot": 2.561e-05,
        "meta_mean_motion_ddot": 0,
        "tle_line1": "1 37959U 93036BPJ 25355.89693150  .00002561  00000+0  54900-3 0  9999",
        "tle_line2": "2 37959  74.0108  39.4932 0057265 180.3481 356.9847 14.58196001802608"
      },
      "geometry": {
        "type": "Point",
        "coordinates": [
          -139.86079213041057,
          -12.108044832867026
        ]
      }
    },
    {
      "type": "Feature",
      "properties": {
        "norad_id": 37960,
        "name": "COSMOS 2251 DEB",
        "group": "cosmos-2251-debris",
        "lat": -69.10094479733944,
        "lon": 119.73248413771904,
        "alt_km": 898.6227073589835,
        "timestamp": "2025-12-23T09:49:07.480793+00:00",
        "meta_object_name": "COSMOS 2251 DEB",
        "meta_object_id": "1993-036BPK",
        "meta_epoch": "2025-12-21T05:19:33.246912",
        "meta_mean_motion": 14.07880113,
        "meta_eccentricity": 0.0248301,
        "meta_inclination": 74.0587,
        "meta_ra_of_asc_node": 172.0268,
        "meta_arg_of_pericenter": 188.6422,
        "meta_mean_anomaly": 171.0406,
        "meta_ephemeris_type": 0,
        "meta_classification_type": "U",
        "meta_norad_cat_id": 37960,
        "meta_element_set_no": 999,
        "meta_rev_at_epoch": 77525,
        "meta_bstar": 0.00064412,
        "meta_mean_motion_dot": 1.424e-05,
        "meta_mean_motion_ddot": 0,
        "tle_line1": "1 37960U 93036BPK 25355.22191258  .00001424  00000+0  64412-3 0  9996",
        "tle_line2": "2 37960  74.0587 172.0268 0248301 188.6422 171.0406 14.07880113775251"
      },
      "geometry": {
        "type": "Point",
        "coordinates": [
          119.73248413771904,
          -69.10094479733944
        ]
      }
    },
    {
      "type": "Feature",
      "properties": {
        "norad_id": 37961,
        "name": "COSMOS 2251 DEB",
        "group": "cosmos-2251-debris",
        "lat": -66.42489991859084,
        "lon": -22.19749665490787,
        "alt_km": 690.5715772854282,
        "timestamp": "2025-12-23T09:49:07.480803+00:00",
        "meta_object_name": "COSMOS 2251 DEB",
        "meta_object_id": "1993-036BPL",
        "meta_epoch": "2025-12-13T03:18:27.462240",
        "meta_mean_motion": 14.57979799,
        "meta_eccentricity": 0.00406759,
        "meta_inclination": 74.0407,
        "meta_ra_of_asc_node": 136.3488,
        "meta_arg_of_pericenter": 216.8805,
        "meta_mean_anomaly": 142.9561,
        "meta_ephemeris_type": 0,
        "meta_classification_type": "U",
        "meta_norad_cat_id": 37961,
        "meta_element_set_no": 999,
        "meta_rev_at_epoch": 80071,
        "meta_bstar": 0.001729191,
        "meta_mean_motion_dot": 8.011e-05,
        "meta_mean_motion_ddot": 0,
        "tle_line1": "1 37961U 93036BPL 25347.13781785  .00008011  00000+0  17292-2 0  9990",
        "tle_line2": "2 37961  74.0407 136.3488 0040675 216.8805 142.9561 14.57979799800716"
      },
      "geometry": {
        "type": "Point",
        "coordinates": [
          -22.19749665490787,
          -66.42489991859084
        ]
      }
    }
  ]
}